{"type":"FeatureCollection","features":[{"type":"Feature","properties":{"borough":"EWR"},"geometry":{"type":"Polygon","coordinates":[[[-74.1856,40.6917],[-74.1828,40.7035],[-74.1816,40.7045],[-74.177,40.7061],[-74.1757,40.7074],[-74.1713,40.708],[-74.1608,40.7076],[-74.1531,40.7053],[-74.1629,40.6899],[-74.1648,40.6897],[-74.1661,40.6866],[-74.1728,40.6766],[-74.1771,40.6718],[-74.1786,40.671],[-74.185,40.6734],[-74.1894,40.6798],[-74.1899,40.6815],[-74.1892,40.6886],[-74.1856,40.6917]]]}},{"type":"Feature","properties":{"borough":"Queens"},"geometry":{"type":"MultiPolygon","coordinates":[[[[-73.9626,40.739],[-73.9616,40.7401],[-73.9619,40.7409],[-73.9611,40.7414],[-73.9612,40.7426],[-73.9598,40.7437],[-73.9606,40.7441],[-73.9595,40.7444],[-73.9597,40.7452],[-73.9587,40.7466],[-73.9568,40.7488],[-73.9559,40.7486],[-73.9565,40.7491],[-73.9562,40.7497],[-73.9549,40.75],[-73.954,40.7518],[-73.9435,40.7645],[-73.9398,40.768],[-73.9349,40.7701],[-73.9349,40.7717],[-73.9375,40.7725],[-73.9378,40.7736],[-73.9377,40.7751],[-73.9364,40.7769],[-73.9339,40.7781],[-73.9318,40.7779],[-73.9299,40.7762],[-73.9286,40.7766],[-73.9173,40.7842],[-73.9126,40.7894],[-73.9099,40.7909],[-73.9003,40.789],[-73.8959,40.7856],[-73.8987,40.7828],[-73.9012,40.7827],[-73.9022,40.7818],[-73.9026,40.7803],[-73.9013,40.7819],[-73.8986,40.782],[-73.8944,40.7842],[-73.8958,40.783],[-73.8931,40.7819],[-73.8924,40.7824],[-73.8927,40.783],[-73.8917,40.7822],[-73.8929,40.7818],[-73.8917,40.7808],[-73.8924,40.7797],[-73.8912,40.7786],[-73.8924,40.7774],[-73.8915,40.7765],[-73.8901,40.7778],[-73.8895,40.7757],[-73.8899,40.7739],[-73.8894,40.7735],[-73.8846,40.7742],[-73.8844,40.7756],[-73.8853,40.7786],[-73.8849,40.78],[-73.8789,40.7807],[-73.879,40.7824],[-73.8797,40.7828],[-73.8797,40.7829],[-73.8789,40.7825],[-73.8783,40.783],[-73.8751,40.7816],[-73.8712,40.786],[-73.8698,40.7854],[-73.8681,40.7875],[-73.8679,40.7874],[-73.8698,40.7851],[-73.8694,40.7837],[-73.8686,40.7838],[-73.8685,40.7837],[-73.8715,40.7821],[-73.8724,40.7808],[-73.8551,40.7722],[-73.8564,40.7703],[-73.8578,40.7703],[-73.8562,40.7689],[-73.8571,40.7691],[-73.8594,40.7671],[-73.8625,40.7666],[-73.8594,40.7625],[-73.8584,40.7622],[-73.8578,40.763],[-73.8585,40.7634],[-73.8583,40.7636],[-73.8576,40.7631],[-73.857,40.7641],[-73.8567,40.7639],[-73.8575,40.7632],[-73.8566,40.7627],[-73.8568,40.7625],[-73.8576,40.763],[-73.8581,40.7625],[-73.8566,40.7616],[-73.8581,40.7623],[-73.8584,40.7618],[-73.8547,40.7602],[-73.8507,40.7594],[-73.8494,40.7602],[-73.8498,40.761],[-73.8521,40.7604],[-73.8498,40.7613],[-73.8486,40.7602],[-73.8431,40.7636],[-73.8427,40.7646],[-73.8396,40.7653],[-73.8392,40.7659],[-73.8399,40.7666],[-73.8445,40.7655],[-73.8478,40.7668],[-73.8489,40.7695],[-73.8498,40.7699],[-73.8488,40.7701],[-73.8487,40.7708],[-73.85,40.7719],[-73.8503,40.7717],[-73.8513,40.7718],[-73.8501,40.772],[-73.849,40.7735],[-73.849,40.778],[-73.8499,40.7793],[-73.8524,40.7792],[-73.8517,40.78],[-73.8497,40.7801],[-73.8499,40.781],[-73.8509,40.7811],[-73.8499,40.7812],[-73.8494,40.7823],[-73.8553,40.782],[-73.8555,40.7831],[-73.8563,40.7834],[-73.8566,40.7829],[-73.8581,40.7837],[-73.858,40.7847],[-73.8595,40.7855],[-73.8581,40.7871],[-73.8568,40.7867],[-73.856,40.7877],[-73.853,40.788],[-73.8548,40.7886],[-73.8545,40.7903],[-73.8527,40.7911],[-73.8538,40.7923],[-73.8537,40.794],[-73.8526,40.7949],[-73.849,40.7934],[-73.8487,40.7954],[-73.8462,40.7962],[-73.8446,40.7949],[-73.8435,40.7949],[-73.8433,40.7962],[-73.8424,40.7956],[-73.8429,40.7969],[-73.8415,40.7954],[-73.8402,40.797],[-73.8404,40.7977],[-73.8379,40.7985],[-73.8402,40.7974],[-73.8384,40.7968],[-73.8371,40.7939],[-73.8365,40.7917],[-73.8375,40.7913],[-73.8375,40.7906],[-73.8368,40.7904],[-73.8373,40.7898],[-73.8329,40.7885],[-73.8318,40.7891],[-73.8321,40.7901],[-73.8314,40.7914],[-73.829,40.792],[-73.8286,40.7925],[-73.8292,40.793],[-73.8279,40.7929],[-73.8281,40.795],[-73.8295,40.7968],[-73.8274,40.7968],[-73.8267,40.7978],[-73.8251,40.7974],[-73.8205,40.801],[-73.8132,40.7974],[-73.8122,40.7981],[-73.8115,40.7974],[-73.8065,40.7964],[-73.8062,40.7968],[-73.805,40.7961],[-73.8043,40.7966],[-73.8001,40.7966],[-73.7981,40.7956],[-73.7976,40.796],[-73.7971,40.7953],[-73.7964,40.7957],[-73.7965,40.7951],[-73.7944,40.7948],[-73.795,40.7918],[-73.7938,40.7893],[-73.7932,40.7895],[-73.7935,40.789],[-73.7928,40.7888],[-73.7903,40.7903],[-73.7857,40.7903],[-73.7828,40.7912],[-73.7843,40.7917],[-73.7816,40.7912],[-73.7808,40.793],[-73.7817,40.7935],[-73.7808,40.7934],[-73.7808,40.794],[-73.7819,40.7949],[-73.7833,40.7949],[-73.782,40.795],[-73.7794,40.7967],[-73.7762,40.7961],[-73.7744,40.7945],[-73.7706,40.7885],[-73.7717,40.7875],[-73.7741,40.7867],[-73.7741,40.7859],[-73.7684,40.7797],[-73.7668,40.7798],[-73.7681,40.7792],[-73.7657,40.7746],[-73.7589,40.7683],[-73.7586,40.7673],[-73.7555,40.7664],[-73.7531,40.7648],[-73.7551,40.7675],[-73.7547,40.7696],[-73.7556,40.7715],[-73.7534,40.7732],[-73.7552,40.7765],[-73.7549,40.7775],[-73.7555,40.7777],[-73.7547,40.7777],[-73.753,40.7813],[-73.7508,40.7829],[-73.7016,40.7525],[-73.7,40.7393],[-73.7077,40.7278],[-73.7183,40.726],[-73.7303,40.7221],[-73.7269,40.71],[-73.7256,40.6796],[-73.7276,40.6742],[-73.7283,40.6681],[-73.7278,40.6632],[-73.7283,40.6629],[-73.7259,40.6577],[-73.7252,40.652],[-73.7305,40.6503],[-73.7351,40.6497],[-73.7414,40.6469],[-73.742,40.6415],[-73.7414,40.6405],[-73.7422,40.64],[-73.7395,40.6357],[-73.74,40.6351],[-73.7425,40.6352],[-73.741,40.6373],[-73.7419,40.6381],[-73.7442,40.638],[-73.7463,40.6364],[-73.747,40.6369],[-73.7462,40.6404],[-73.7468,40.6423],[-73.7488,40.6451],[-73.7495,40.6449],[-73.7531,40.6471],[-73.7534,40.6465],[-73.7487,40.6433],[-73.7474,40.6414],[-73.7486,40.6355],[-73.7664,40.6284],[-73.7686,40.6247],[-73.7687,40.6227],[-73.7708,40.62],[-73.7717,40.6204],[-73.7709,40.6229],[-73.7717,40.6234],[-73.7723,40.6229],[-73.7751,40.6192],[-73.7752,40.6193],[-73.7719,40.6238],[-73.7764,40.6275],[-73.7792,40.6273],[-73.7852,40.6202],[-73.7844,40.617],[-73.7832,40.6156],[-73.7808,40.6146],[-73.7809,40.6136],[-73.7836,40.6119],[-73.7849,40.6119],[-73.7858,40.611],[-73.7886,40.61],[-73.7914,40.6076],[-73.7915,40.6087],[-73.7937,40.609],[-73.795,40.6105],[-73.8008,40.6119],[-73.7996,40.6134],[-73.799,40.6156],[-73.7974,40.6167],[-73.7946,40.6226],[-73.7897,40.6226],[-73.7835,40.6281],[-73.7827,40.6302],[-73.7895,40.6341],[-73.791,40.6342],[-73.7981,40.631],[-73.7914,40.6341],[-73.7913,40.6349],[-73.7922,40.6359],[-73.7992,40.6384],[-73.8056,40.6416],[-73.8182,40.6463],[-73.8212,40.6491],[-73.8235,40.6554],[-73.8223,40.6594],[-73.8187,40.6611],[-73.8126,40.6602],[-73.8115,40.6603],[-73.8115,40.6607],[-73.8186,40.6621],[-73.8235,40.6601],[-73.825,40.6554],[-73.823,40.648],[-73.8245,40.6495],[-73.8263,40.6494],[-73.8264,40.6483],[-73.8287,40.6492],[-73.8309,40.6516],[-73.8313,40.6534],[-73.8321,40.654],[-73.8311,40.6485],[-73.8317,40.648],[-73.8343,40.6481],[-73.8357,40.6487],[-73.8388,40.6611],[-73.8382,40.662],[-73.8388,40.6624],[-73.8399,40.6619],[-73.8398,40.6605],[-73.8359,40.6455],[-73.8495,40.6441],[-73.8518,40.6459],[-73.8524,40.6474],[-73.8494,40.6514],[-73.8509,40.6515],[-73.8525,40.6506],[-73.8559,40.6513],[-73.8567,40.6528],[-73.8583,40.653],[-73.8594,40.655],[-73.8614,40.6564],[-73.861,40.6568],[-73.8616,40.657],[-73.8617,40.6579],[-73.8627,40.6576],[-73.8632,40.6583],[-73.8604,40.6596],[-73.8577,40.6601],[-73.8584,40.6635],[-73.8557,40.6641],[-73.8576,40.6715],[-73.8604,40.6713],[-73.8623,40.679],[-73.8633,40.6791],[-73.8641,40.6823],[-73.866,40.6819],[-73.8688,40.6951],[-73.874,40.6942],[-73.8795,40.6911],[-73.8845,40.6867],[-73.8896,40.6842],[-73.8903,40.6849],[-73.8925,40.6834],[-73.8943,40.6852],[-73.8965,40.6823],[-73.9012,40.6879],[-73.9005,40.6883],[-73.9018,40.6908],[-73.9014,40.6915],[-73.9058,40.6941],[-73.9044,40.6958],[-73.9118,40.6999],[-73.9108,40.701],[-73.9129,40.7024],[-73.912,40.7036],[-73.9219,40.7094],[-73.9209,40.7106],[-73.9222,40.7128],[-73.924,40.714],[-73.9241,40.7151],[-73.9222,40.7163],[-73.9239,40.719],[-73.9243,40.7214],[-73.9252,40.7223],[-73.9245,40.7236],[-73.9207,40.7237],[-73.9249,40.7245],[-73.9292,40.7283],[-73.9345,40.7291],[-73.938,40.7305],[-73.9417,40.7359],[-73.9459,40.7375],[-73.9431,40.739],[-73.9472,40.7379],[-73.9538,40.7398],[-73.9574,40.7396],[-73.9607,40.7381],[-73.9622,40.7383],[-73.9626,40.739]],[[-73.7492,40.7618],[-73.7485,40.7609],[-73.7483,40.761],[-73.7486,40.7617],[-73.7492,40.7618]],[[-73.7509,40.7622],[-73.7508,40.7617],[-73.7506,40.762],[-73.7509,40.7622]],[[-73.7544,40.6479],[-73.7546,40.6472],[-73.7536,40.647],[-73.7536,40.6474],[-73.7544,40.6479]],[[-73.8321,40.6546],[-73.8325,40.6548],[-73.8324,40.6545],[-73.8321,40.6546]],[[-73.8333,40.658],[-73.8326,40.6577],[-73.8327,40.6581],[-73.8333,40.658]],[[-73.8504,40.7797],[-73.8499,40.78],[-73.8504,40.78],[-73.8504,40.7797]],[[-73.8604,40.6578],[-73.8599,40.6573],[-73.86,40.6579],[-73.8604,40.6578]],[[-73.9399,40.7431],[-73.9424,40.7391],[-73.9405,40.7401],[-73.9387,40.7429],[-73.9399,40.7431]]],[[[-73.9407,40.5418],[-73.9401,40.548],[-73.9407,40.5525],[-73.9399,40.5546],[-73.9357,40.5572],[-73.9319,40.5578],[-73.9259,40.5617],[-73.9177,40.5628],[-73.912,40.5651],[-73.912,40.5659],[-73.9118,40.5651],[-73.9097,40.5653],[-73.9098,40.5643],[-73.9079,40.5642],[-73.9079,40.5635],[-73.9068,40.5629],[-73.9029,40.5635],[-73.9015,40.563],[-73.8963,40.5652],[-73.8954,40.5663],[-73.8957,40.5671],[-73.8926,40.5686],[-73.8891,40.5679],[-73.8837,40.5684],[-73.8839,40.5689],[-73.8833,40.5684],[-73.8778,40.5688],[-73.8504,40.5821],[-73.8452,40.5816],[-73.8394,40.5819],[-73.8386,40.5828],[-73.8358,40.5829],[-73.8286,40.5848],[-73.828,40.5861],[-73.8248,40.5872],[-73.8229,40.5875],[-73.8214,40.5868],[-73.8176,40.5888],[-73.8176,40.5893],[-73.8134,40.5909],[-73.8136,40.5917],[-73.8132,40.5912],[-73.8117,40.5916],[-73.8115,40.5929],[-73.8101,40.5922],[-73.8096,40.5936],[-73.8043,40.5914],[-73.8043,40.5919],[-73.8078,40.5934],[-73.808,40.5942],[-73.8071,40.5953],[-73.806,40.5956],[-73.8041,40.5943],[-73.8039,40.5931],[-73.8025,40.5927],[-73.8025,40.5938],[-73.8031,40.5938],[-73.8052,40.5969],[-73.803,40.5988],[-73.7942,40.5995],[-73.7915,40.6004],[-73.7879,40.6031],[-73.7864,40.6032],[-73.7879,40.601],[-73.7903,40.5992],[-73.7911,40.5967],[-73.7902,40.5961],[-73.7899,40.5948],[-73.79,40.5962],[-73.7897,40.5952],[-73.7891,40.5954],[-73.7891,40.598],[-73.7835,40.6026],[-73.7831,40.6037],[-73.7839,40.6048],[-73.7837,40.6053],[-73.7786,40.6096],[-73.7753,40.6097],[-73.7742,40.6089],[-73.7751,40.6046],[-73.7747,40.6043],[-73.7755,40.6041],[-73.7756,40.6029],[-73.7782,40.6004],[-73.7802,40.6007],[-73.7819,40.5991],[-73.7818,40.5984],[-73.7799,40.5972],[-73.7775,40.5988],[-73.776,40.6014],[-73.775,40.6017],[-73.7736,40.5981],[-73.7698,40.5981],[-73.7695,40.5986],[-73.771,40.5989],[-73.7711,40.6004],[-73.7702,40.6026],[-73.77,40.6072],[-73.769,40.6093],[-73.7722,40.6115],[-73.7734,40.6112],[-73.773,40.6102],[-73.7742,40.6118],[-73.7734,40.6137],[-73.7668,40.6143],[-73.7652,40.6138],[-73.7649,40.612],[-73.7624,40.6114],[-73.7617,40.6118],[-73.7584,40.6103],[-73.755,40.6101],[-73.748,40.6123],[-73.7468,40.6116],[-73.7458,40.612],[-73.7432,40.6073],[-73.7382,40.6027],[-73.7383,40.5983],[-73.7376,40.5944],[-73.7422,40.5949],[-73.7466,40.5943],[-73.7502,40.5927],[-73.7516,40.5914],[-73.7535,40.5909],[-73.7614,40.5917],[-73.7775,40.5901],[-73.7888,40.5875],[-73.8135,40.5835],[-73.8339,40.5777],[-73.8571,40.5691],[-73.8627,40.5665],[-73.8636,40.567],[-73.8664,40.5662],[-73.8663,40.5655],[-73.8669,40.5661],[-73.8683,40.5655],[-73.8683,40.5651],[-73.8692,40.5654],[-73.8705,40.5648],[-73.8703,40.5642],[-73.8709,40.5648],[-73.8725,40.5641],[-73.8724,40.5636],[-73.8732,40.5641],[-73.8949,40.5571],[-73.9028,40.5567],[-73.9069,40.5556],[-73.9404,40.5429],[-73.9407,40.5418]],[[-73.7407,40.5969],[-73.7409,40.5966],[-73.7406,40.5966],[-73.7407,40.5969]],[[-73.7687,40.5984],[-73.7682,40.5979],[-73.768,40.5981],[-73.7687,40.5984]],[[-73.8114,40.5924],[-73.811,40.5918],[-73.8109,40.5924],[-73.8114,40.5924]]],[[[-73.774,40.616],[-73.7687,40.6209],[-73.7675,40.6205],[-73.7667,40.6149],[-73.774,40.616]]],[[[-73.8052,40.6067],[-73.8042,40.6087],[-73.8016,40.6102],[-73.7988,40.6103],[-73.7963,40.6093],[-73.7942,40.6077],[-73.7935,40.6063],[-73.797,40.6041],[-73.8012,40.6039],[-73.8043,40.6045],[-73.8052,40.6067]]],[[[-73.8077,40.6223],[-73.807,40.6239],[-73.8056,40.625],[-73.8051,40.6247],[-73.8005,40.6269],[-73.8009,40.6275],[-73.7978,40.6274],[-73.7957,40.6261],[-73.7973,40.6248],[-73.794,40.6256],[-73.7936,40.6252],[-73.7981,40.623],[-73.7995,40.6212],[-73.7999,40.6186],[-73.8015,40.6195],[-73.801,40.6178],[-73.8013,40.6159],[-73.8034,40.6132],[-73.8051,40.6134],[-73.8048,40.6158],[-73.8058,40.6167],[-73.8077,40.6223]]],[[[-73.815,40.6021],[-73.8143,40.6045],[-73.8119,40.6032],[-73.8109,40.6032],[-73.8099,40.6019],[-73.8103,40.599],[-73.8116,40.5981],[-73.8122,40.5986],[-73.8144,40.6005],[-73.815,40.6021]]],[[[-73.8173,40.6306],[-73.8164,40.6314],[-73.8139,40.6308],[-73.8131,40.6293],[-73.8133,40.6279],[-73.8126,40.6284],[-73.8113,40.6247],[-73.8121,40.6211],[-73.8102,40.6165],[-73.8109,40.6162],[-73.812,40.6172],[-73.8145,40.6224],[-73.8142,40.6237],[-73.8168,40.6263],[-73.8144,40.6262],[-73.8163,40.6271],[-73.8173,40.6306]]],[[[-73.8378,40.6156],[-73.835,40.6177],[-73.8357,40.6196],[-73.8347,40.622],[-73.8353,40.6237],[-73.8351,40.6255],[-73.8336,40.6267],[-73.8346,40.6274],[-73.832,40.6296],[-73.8312,40.6326],[-73.8334,40.6385],[-73.8322,40.6389],[-73.8281,40.6359],[-73.8255,40.6358],[-73.8244,40.6363],[-73.8242,40.64],[-73.8234,40.639],[-73.8211,40.6297],[-73.8199,40.6278],[-73.818,40.6271],[-73.8177,40.626],[-73.8161,40.6246],[-73.8167,40.6239],[-73.818,40.6241],[-73.8189,40.623],[-73.8177,40.6216],[-73.8165,40.622],[-73.8157,40.6215],[-73.8154,40.6201],[-73.8174,40.6189],[-73.8178,40.6173],[-73.8171,40.6153],[-73.8163,40.6142],[-73.8141,40.6146],[-73.8154,40.6141],[-73.8149,40.6131],[-73.8161,40.6128],[-73.8155,40.6106],[-73.8145,40.6111],[-73.8152,40.61],[-73.8151,40.6073],[-73.8164,40.6052],[-73.8174,40.6051],[-73.8185,40.5994],[-73.8207,40.5952],[-73.8214,40.5947],[-73.8248,40.5951],[-73.8324,40.5946],[-73.8348,40.5955],[-73.8324,40.5978],[-73.8307,40.5975],[-73.8295,40.5981],[-73.8281,40.5977],[-73.826,40.5995],[-73.8248,40.5983],[-73.8245,40.5991],[-73.8238,40.6001],[-73.8245,40.6008],[-73.8229,40.6026],[-73.8229,40.6059],[-73.82,40.6089],[-73.8196,40.6105],[-73.8205,40.6122],[-73.8213,40.6111],[-73.8206,40.61],[-73.8216,40.6085],[-73.8219,40.6099],[-73.8229,40.6103],[-73.8256,40.6141],[-73.8273,40.6134],[-73.8278,40.6142],[-73.8306,40.6149],[-73.8343,40.6144],[-73.8378,40.6156]],[[-73.8241,40.5988],[-73.8247,40.5984],[-73.8245,40.5982],[-73.8241,40.5988]]],[[[-73.8286,40.6058],[-73.8282,40.608],[-73.8263,40.6078],[-73.8259,40.6065],[-73.8286,40.6058]]],[[[-73.8261,40.6084],[-73.8277,40.6084],[-73.8281,40.61],[-73.8261,40.6084]]],[[[-73.8361,40.6074],[-73.8325,40.6104],[-73.8303,40.6085],[-73.8305,40.6067],[-73.8345,40.6055],[-73.8359,40.6056],[-73.8361,40.6074]]],[[[-73.8439,40.5934],[-73.8433,40.5944],[-73.8385,40.5962],[-73.8331,40.593],[-73.8325,40.5903],[-73.8336,40.5893],[-73.8372,40.5897],[-73.8393,40.5921],[-73.84,40.5919],[-73.8395,40.5924],[-73.8399,40.5928],[-73.8408,40.5929],[-73.8414,40.5921],[-73.8422,40.5931],[-73.8439,40.5934]],[[-73.8336,40.592],[-73.8335,40.5914],[-73.8332,40.5918],[-73.8336,40.592]]],[[[-73.8445,40.6298],[-73.8424,40.6315],[-73.8377,40.6328],[-73.8362,40.6311],[-73.8411,40.6246],[-73.8445,40.6298]]],[[[-73.8518,40.6069],[-73.8512,40.6077],[-73.8478,40.6093],[-73.8482,40.6125],[-73.8473,40.6135],[-73.8461,40.6177],[-73.843,40.6177],[-73.8428,40.6166],[-73.844,40.6169],[-73.8445,40.6149],[-73.8411,40.6131],[-73.8383,40.6138],[-73.8408,40.6056],[-73.8471,40.6036],[-73.8518,40.6069]]],[[[-73.8586,40.6305],[-73.8561,40.6351],[-73.8467,40.6387],[-73.8435,40.6365],[-73.845,40.6332],[-73.8472,40.632],[-73.8486,40.6301],[-73.8586,40.6305]]],[[[-73.864,40.6192],[-73.8615,40.6192],[-73.8611,40.6239],[-73.8635,40.6234],[-73.8633,40.6259],[-73.8614,40.626],[-73.8604,40.6253],[-73.8586,40.628],[-73.8565,40.6291],[-73.8561,40.6283],[-73.8543,40.6277],[-73.8544,40.6288],[-73.8507,40.628],[-73.8485,40.6296],[-73.8473,40.6291],[-73.8495,40.6264],[-73.8473,40.6266],[-73.8451,40.6254],[-73.8436,40.6232],[-73.8461,40.6222],[-73.8485,40.6224],[-73.8566,40.62],[-73.8611,40.6177],[-73.8636,40.6179],[-73.864,40.6192]]],[[[-73.8592,40.6113],[-73.8566,40.6133],[-73.8586,40.6169],[-73.8552,40.6161],[-73.8551,40.6131],[-73.8529,40.6132],[-73.8538,40.6141],[-73.8526,40.6151],[-73.8497,40.6152],[-73.8501,40.6102],[-73.8552,40.6061],[-73.8571,40.6065],[-73.8571,40.6083],[-73.859,40.6095],[-73.8592,40.6113]]],[[[-73.8634,40.6003],[-73.8608,40.6026],[-73.8548,40.6019],[-73.8528,40.6009],[-73.8508,40.5988],[-73.8527,40.5972],[-73.8572,40.596],[-73.8604,40.5965],[-73.8634,40.6003]]],[[[-73.861,40.6552],[-73.8598,40.6545],[-73.857,40.6506],[-73.8598,40.6541],[-73.861,40.6552]]],[[[-73.8712,40.5869],[-73.8698,40.5895],[-73.8664,40.5919],[-73.8633,40.5909],[-73.8613,40.588],[-73.8617,40.5861],[-73.8633,40.5839],[-73.869,40.5817],[-73.8705,40.5833],[-73.8712,40.5869]]],[[[-73.8782,40.6154],[-73.8748,40.6236],[-73.8668,40.6278],[-73.865,40.6257],[-73.8663,40.6185],[-73.8782,40.6154]]],[[[-73.8687,40.607],[-73.8687,40.6082],[-73.867,40.6081],[-73.8687,40.607]]],[[[-73.8683,40.6031],[-73.8679,40.604],[-73.867,40.6042],[-73.8677,40.6031],[-73.8683,40.6031]]],[[[-73.8697,40.5967],[-73.8702,40.597],[-73.8695,40.5987],[-73.8697,40.5967]]],[[[-73.873,40.6106],[-73.871,40.6097],[-73.8697,40.6065],[-73.8711,40.6047],[-73.8711,40.6063],[-73.8725,40.6082],[-73.873,40.6106]]],[[[-73.8702,40.599],[-73.8711,40.5989],[-73.8705,40.6026],[-73.8702,40.599]]],[[[-73.8728,40.7859],[-73.8729,40.786],[-73.8728,40.7859],[-73.8728,40.7859]]]]}},{"type":"Feature","properties":{"borough":"Bronx"},"geometry":{"type":"MultiPolygon","coordinates":[[[[-73.773,40.8522],[-73.7717,40.8526],[-73.773,40.8538],[-73.7721,40.8544],[-73.7724,40.8597],[-73.7708,40.8601],[-73.7653,40.855],[-73.7678,40.8544],[-73.7694,40.8526],[-73.7686,40.8508],[-73.7696,40.8475],[-73.7679,40.8453],[-73.769,40.8451],[-73.7712,40.8469],[-73.7716,40.8475],[-73.7709,40.8498],[-73.773,40.8522]]],[[[-73.7678,40.8668],[-73.7676,40.8675],[-73.7667,40.8671],[-73.7671,40.8667],[-73.7678,40.8668]]],[[[-73.7698,40.8651],[-73.7701,40.8655],[-73.7697,40.8655],[-73.7698,40.8651]]],[[[-73.7729,40.8712],[-73.7722,40.872],[-73.7699,40.8705],[-73.7711,40.8707],[-73.7729,40.8712]]],[[[-73.7732,40.8607],[-73.7731,40.8616],[-73.7729,40.8612],[-73.7732,40.8607]]],[[[-73.7746,40.8742],[-73.7745,40.8747],[-73.7741,40.8749],[-73.774,40.8744],[-73.7746,40.8742]]],[[[-73.7751,40.8612],[-73.7749,40.862],[-73.7746,40.8621],[-73.7751,40.8612]]],[[[-73.7935,40.8523],[-73.7928,40.8524],[-73.793,40.8534],[-73.7926,40.854],[-73.7913,40.8545],[-73.7932,40.8564],[-73.7929,40.8575],[-73.7924,40.8578],[-73.7913,40.8573],[-73.7918,40.8577],[-73.7914,40.8582],[-73.791,40.8576],[-73.7902,40.8586],[-73.7893,40.8586],[-73.7887,40.8575],[-73.788,40.8575],[-73.7889,40.8566],[-73.7884,40.8544],[-73.7869,40.8541],[-73.7879,40.8534],[-73.7859,40.8518],[-73.7834,40.8516],[-73.7844,40.8509],[-73.7835,40.8492],[-73.7815,40.8494],[-73.7819,40.849],[-73.781,40.8485],[-73.7819,40.8468],[-73.7804,40.8469],[-73.7812,40.8462],[-73.7813,40.8467],[-73.7824,40.8464],[-73.7818,40.8455],[-73.7819,40.8453],[-73.783,40.845],[-73.783,40.8441],[-73.7805,40.8445],[-73.7799,40.8439],[-73.7802,40.8429],[-73.7816,40.8425],[-73.7812,40.842],[-73.7803,40.8425],[-73.7802,40.842],[-73.7818,40.8416],[-73.7808,40.8413],[-73.7814,40.8409],[-73.7811,40.8395],[-73.7819,40.8377],[-73.7829,40.8373],[-73.7828,40.8363],[-73.7834,40.8369],[-73.785,40.8367],[-73.7849,40.8375],[-73.7856,40.8371],[-73.7858,40.8372],[-73.7852,40.8375],[-73.7857,40.8392],[-73.7874,40.8397],[-73.7877,40.8407],[-73.7882,40.8407],[-73.7877,40.8413],[-73.7884,40.8415],[-73.7882,40.8422],[-73.789,40.8432],[-73.7899,40.843],[-73.7895,40.8443],[-73.7919,40.8472],[-73.791,40.849],[-73.7898,40.8495],[-73.791,40.8498],[-73.7904,40.85],[-73.791,40.8504],[-73.7903,40.8511],[-73.7911,40.8518],[-73.7931,40.8516],[-73.7935,40.8523]],[[-73.7829,40.8431],[-73.7826,40.8426],[-73.7819,40.8432],[-73.7814,40.8428],[-73.7814,40.8434],[-73.7808,40.8429],[-73.7808,40.8435],[-73.7804,40.8429],[-73.7803,40.8438],[-73.7807,40.8444],[-73.7814,40.8437],[-73.7819,40.8441],[-73.7818,40.8436],[-73.7822,40.8441],[-73.7829,40.8431]],[[-73.7821,40.8457],[-73.7824,40.8453],[-73.782,40.8454],[-73.7821,40.8457]],[[-73.7914,40.8537],[-73.7921,40.8529],[-73.7911,40.8533],[-73.7914,40.8537]],[[-73.7923,40.8566],[-73.792,40.8571],[-73.7924,40.8569],[-73.7923,40.8566]],[[-73.7927,40.8573],[-73.7926,40.8567],[-73.7924,40.8571],[-73.7927,40.8573]],[[-73.7929,40.8533],[-73.7924,40.8529],[-73.7926,40.8533],[-73.7929,40.8533]]],[[[-73.7816,40.855],[-73.7812,40.8561],[-73.7806,40.8557],[-73.7809,40.855],[-73.7816,40.855]]],[[[-73.781,40.8765],[-73.7813,40.8764],[-73.7811,40.8767],[-73.781,40.8765]]],[[[-73.7824,40.8749],[-73.7827,40.8751],[-73.7825,40.8752],[-73.7824,40.8749]]],[[[-73.7839,40.8556],[-73.7834,40.8564],[-73.7828,40.8559],[-73.783,40.8551],[-73.7839,40.8556]]],[[[-73.7847,40.8626],[-73.7843,40.8632],[-73.7835,40.8631],[-73.7839,40.8625],[-73.7847,40.8626]]],[[[-73.7832,40.8623],[-73.7829,40.8626],[-73.7831,40.8621],[-73.7832,40.8623]]],[[[-73.9336,40.8328],[-73.933,40.8357],[-73.9286,40.8447],[-73.9196,40.8568],[-73.9134,40.8634],[-73.9124,40.8635],[-73.9128,40.8639],[-73.9104,40.8665],[-73.9095,40.8688],[-73.9089,40.8722],[-73.9077,40.8729],[-73.9067,40.8757],[-73.9071,40.8769],[-73.9103,40.879],[-73.9115,40.879],[-73.9158,40.8757],[-73.9178,40.8757],[-73.9198,40.8764],[-73.9228,40.8789],[-73.9249,40.8789],[-73.9204,40.8876],[-73.915,40.9031],[-73.9126,40.9081],[-73.9117,40.9134],[-73.9103,40.9155],[-73.8596,40.9006],[-73.8596,40.9024],[-73.8582,40.9023],[-73.8571,40.9036],[-73.8572,40.9053],[-73.8562,40.9052],[-73.8568,40.9062],[-73.8538,40.9077],[-73.8547,40.908],[-73.8546,40.9089],[-73.853,40.9104],[-73.8523,40.9099],[-73.8511,40.9104],[-73.8533,40.9075],[-73.851,40.9066],[-73.8502,40.9075],[-73.8448,40.9055],[-73.8448,40.9042],[-73.8414,40.9042],[-73.8407,40.9015],[-73.8392,40.8994],[-73.8396,40.8973],[-73.8383,40.8941],[-73.8235,40.8899],[-73.8234,40.8911],[-73.8228,40.8912],[-73.793,40.8834],[-73.7953,40.8805],[-73.795,40.8797],[-73.7974,40.8751],[-73.7998,40.8742],[-73.8009,40.8716],[-73.8025,40.8705],[-73.8032,40.8717],[-73.8029,40.8722],[-73.8035,40.8724],[-73.8042,40.8712],[-73.8035,40.87],[-73.8028,40.8701],[-73.803,40.8692],[-73.8055,40.869],[-73.8059,40.8698],[-73.8075,40.8705],[-73.8077,40.8699],[-73.807,40.8697],[-73.8067,40.8687],[-73.8049,40.8682],[-73.8046,40.8668],[-73.803,40.867],[-73.8029,40.8658],[-73.8022,40.8657],[-73.7978,40.8723],[-73.7948,40.8733],[-73.7934,40.877],[-73.7944,40.8776],[-73.7929,40.8793],[-73.7896,40.8813],[-73.7891,40.8801],[-73.7899,40.8796],[-73.7895,40.879],[-73.7859,40.8791],[-73.7844,40.8784],[-73.7847,40.8764],[-73.7867,40.8743],[-73.7872,40.8728],[-73.7862,40.8724],[-73.7851,40.8736],[-73.7856,40.8724],[-73.7852,40.8719],[-73.7836,40.8738],[-73.7839,40.8727],[-73.7831,40.8722],[-73.7832,40.8707],[-73.7849,40.8698],[-73.7856,40.8683],[-73.786,40.8696],[-73.7879,40.8698],[-73.7914,40.8681],[-73.7926,40.8642],[-73.7915,40.8622],[-73.7919,40.8608],[-73.7935,40.8605],[-73.7934,40.8599],[-73.7946,40.8589],[-73.7944,40.8565],[-73.7968,40.8563],[-73.798,40.8548],[-73.7987,40.8549],[-73.799,40.8539],[-73.798,40.853],[-73.7978,40.8519],[-73.7982,40.8506],[-73.7996,40.8497],[-73.8002,40.8482],[-73.8015,40.8488],[-73.8042,40.8533],[-73.8045,40.8549],[-73.8035,40.8556],[-73.8046,40.8613],[-73.8054,40.8619],[-73.8062,40.8614],[-73.8058,40.86],[-73.8066,40.8597],[-73.8074,40.8604],[-73.8081,40.86],[-73.8077,40.8585],[-73.8109,40.8623],[-73.8141,40.8637],[-73.8163,40.8613],[-73.8138,40.8605],[-73.8127,40.8589],[-73.8123,40.8542],[-73.8164,40.8541],[-73.8172,40.8523],[-73.817,40.8511],[-73.8157,40.8508],[-73.8162,40.8501],[-73.8151,40.8492],[-73.8161,40.8464],[-73.8137,40.8473],[-73.8147,40.8463],[-73.8139,40.8459],[-73.8117,40.8467],[-73.8127,40.8442],[-73.8132,40.8449],[-73.8138,40.8447],[-73.8135,40.8436],[-73.8144,40.8431],[-73.8158,40.8444],[-73.8165,40.8438],[-73.8152,40.8426],[-73.8156,40.8418],[-73.8147,40.8414],[-73.8152,40.841],[-73.8143,40.8396],[-73.8165,40.8377],[-73.8161,40.8361],[-73.8155,40.836],[-73.8161,40.8352],[-73.8155,40.8323],[-73.8147,40.8308],[-73.8139,40.8309],[-73.8141,40.8302],[-73.8127,40.8283],[-73.8099,40.8282],[-73.8125,40.8278],[-73.8137,40.8268],[-73.8129,40.8264],[-73.8137,40.8253],[-73.8121,40.8256],[-73.814,40.8242],[-73.8133,40.824],[-73.8127,40.8248],[-73.8118,40.8244],[-73.8091,40.8259],[-73.807,40.8254],[-73.8067,40.8234],[-73.806,40.8229],[-73.806,40.8208],[-73.8046,40.819],[-73.8035,40.8183],[-73.8007,40.818],[-73.7976,40.8165],[-73.7974,40.8158],[-73.7991,40.8155],[-73.8013,40.8133],[-73.8014,40.8124],[-73.8018,40.8128],[-73.8036,40.8125],[-73.8055,40.8154],[-73.8051,40.8129],[-73.8022,40.8102],[-73.801,40.8107],[-73.8012,40.8101],[-73.7985,40.8096],[-73.7923,40.8069],[-73.7909,40.8073],[-73.7901,40.8054],[-73.791,40.8043],[-73.7934,40.8042],[-73.7957,40.8061],[-73.7979,40.8067],[-73.8019,40.809],[-73.8039,40.8085],[-73.8099,40.8129],[-73.8139,40.8136],[-73.8145,40.8129],[-73.8146,40.8135],[-73.8162,40.8138],[-73.8198,40.8132],[-73.8211,40.8122],[-73.8207,40.813],[-73.8241,40.8122],[-73.8254,40.811],[-73.828,40.8114],[-73.8302,40.8108],[-73.8322,40.8085],[-73.8316,40.8049],[-73.8374,40.8062],[-73.8404,40.8125],[-73.8396,40.8145],[-73.8401,40.8178],[-73.8388,40.8195],[-73.8391,40.8227],[-73.8423,40.8291],[-73.8419,40.8307],[-73.8389,40.8337],[-73.8392,40.8386],[-73.8399,40.8396],[-73.8396,40.834],[-73.8422,40.8315],[-73.8431,40.8297],[-73.84,40.8222],[-73.84,40.8199],[-73.842,40.8188],[-73.8462,40.8107],[-73.8472,40.8106],[-73.8482,40.8125],[-73.8511,40.8144],[-73.8526,40.8141],[-73.849,40.8121],[-73.8499,40.8084],[-73.8488,40.8083],[-73.8492,40.8079],[-73.8475,40.8059],[-73.8479,40.805],[-73.8493,40.8047],[-73.8498,40.8051],[-73.8507,40.8045],[-73.8564,40.8047],[-73.8587,40.8068],[-73.8584,40.8083],[-73.859,40.8099],[-73.8599,40.8096],[-73.8594,40.809],[-73.8594,40.8082],[-73.8606,40.8096],[-73.8677,40.8106],[-73.8708,40.8145],[-73.8764,40.8161],[-73.8766,40.816],[-73.8767,40.8156],[-73.8766,40.8154],[-73.8724,40.814],[-73.8706,40.8121],[-73.8681,40.8068],[-73.8724,40.8013],[-73.8723,40.8002],[-73.873,40.8003],[-73.8731,40.801],[-73.8781,40.8013],[-73.8784,40.8027],[-73.8851,40.8021],[-73.8879,40.805],[-73.8895,40.8054],[-73.89,40.8049],[-73.8899,40.8057],[-73.8918,40.8056],[-73.8921,40.8064],[-73.8926,40.8058],[-73.8913,40.805],[-73.8922,40.8053],[-73.8926,40.8056],[-73.8929,40.8063],[-73.8948,40.8057],[-73.8953,40.8068],[-73.8953,40.8058],[-73.8956,40.8063],[-73.8959,40.8058],[-73.897,40.8061],[-73.9022,40.8047],[-73.9109,40.797],[-73.9137,40.7968],[-73.9202,40.7996],[-73.9229,40.8024],[-73.9276,40.8027],[-73.9276,40.8039],[-73.9287,40.8041],[-73.9323,40.8083],[-73.9329,40.8104],[-73.9325,40.8216],[-73.9336,40.8328]],[[-73.8061,40.8159],[-73.806,40.8154],[-73.8057,40.8155],[-73.8061,40.8159]],[[-73.8084,40.8706],[-73.8077,40.8708],[-73.8083,40.871],[-73.8084,40.8706]]],[[[-73.8766,40.8157],[-73.8766,40.8157],[-73.8766,40.8157],[-73.8766,40.8157]]],[[[-73.7874,40.8589],[-73.7869,40.86],[-73.7845,40.8604],[-73.7852,40.8588],[-73.786,40.8593],[-73.7874,40.8589]]],[[[-73.7873,40.8797],[-73.7869,40.8809],[-73.7857,40.8806],[-73.7867,40.8805],[-73.7873,40.8797]]],[[[-73.7867,40.8731],[-73.7863,40.8738],[-73.7861,40.8738],[-73.7863,40.8733],[-73.7867,40.8731]]],[[[-73.7895,40.8354],[-73.7885,40.8353],[-73.7883,40.8347],[-73.7893,40.8345],[-73.7895,40.8354]]],[[[-73.8069,40.8415],[-73.8068,40.8425],[-73.8039,40.8426],[-73.8022,40.8416],[-73.8026,40.8411],[-73.8069,40.8415]]],[[[-73.8928,40.7928],[-73.8918,40.7968],[-73.8908,40.798],[-73.8889,40.7979],[-73.889,40.7988],[-73.8882,40.7987],[-73.884,40.7959],[-73.8784,40.7945],[-73.8729,40.7915],[-73.8712,40.7901],[-73.8708,40.788],[-73.8731,40.7859],[-73.8783,40.7854],[-73.8877,40.7869],[-73.8891,40.7874],[-73.8905,40.7901],[-73.8921,40.7903],[-73.8928,40.7928]]],[[[-73.9002,40.7993],[-73.9,40.8009],[-73.8983,40.8024],[-73.8965,40.8008],[-73.8986,40.7991],[-73.9002,40.7993]]],[[[-73.8992,40.7965],[-73.8979,40.7971],[-73.8968,40.7958],[-73.898,40.7956],[-73.8992,40.7965]]]]}},{"type":"Feature","properties":{"borough":"Manhattan"},"geometry":{"type":"MultiPolygon","coordinates":[[[[-73.9158,40.8757],[-73.9115,40.879],[-73.9103,40.879],[-73.907,40.8769],[-73.9067,40.8757],[-73.9077,40.8728],[-73.9089,40.8722],[-73.9109,40.8741],[-73.9158,40.8757]]],[[[-74.0193,40.7061],[-74.0183,40.7076],[-74.0189,40.708],[-74.0178,40.7128],[-74.0167,40.7122],[-74.0164,40.7132],[-74.0174,40.7136],[-74.0177,40.7131],[-74.0167,40.7186],[-74.0134,40.7183],[-74.0131,40.7189],[-74.013,40.7197],[-74.0145,40.7205],[-74.013,40.7205],[-74.0117,40.7258],[-74.0152,40.7264],[-74.0151,40.7268],[-74.0115,40.7266],[-74.0115,40.7282],[-74.0144,40.7285],[-74.0141,40.7307],[-74.0112,40.7305],[-74.011,40.7329],[-74.014,40.7333],[-74.0108,40.7335],[-74.012,40.7343],[-74.0108,40.7344],[-74.0105,40.7379],[-74.0111,40.7384],[-74.0104,40.739],[-74.0124,40.7398],[-74.0115,40.7404],[-74.0127,40.7407],[-74.0095,40.7409],[-74.0122,40.7415],[-74.0096,40.7415],[-74.0092,40.7429],[-74.0121,40.7436],[-74.0089,40.7441],[-74.0089,40.7449],[-74.0118,40.7451],[-74.0118,40.7456],[-74.0094,40.7459],[-74.0116,40.7466],[-74.0092,40.7469],[-74.0114,40.7476],[-74.009,40.7479],[-74.0112,40.7487],[-74.01,40.749],[-74.0096,40.7497],[-74.0108,40.7504],[-74.0093,40.7501],[-74.0086,40.7517],[-74.01,40.7529],[-74.0083,40.7525],[-74.0077,40.7543],[-74.0049,40.7577],[-74.0052,40.7584],[-74.007,40.7592],[-74.0065,40.7599],[-74.0045,40.7591],[-74.0027,40.7611],[-74.0025,40.7616],[-74.0046,40.7625],[-74.0023,40.7618],[-74.0017,40.7626],[-74.0036,40.7638],[-74.0011,40.7632],[-74.0032,40.7647],[-73.9996,40.7636],[-73.9993,40.7643],[-74.0023,40.7656],[-73.999,40.7646],[-73.9984,40.7656],[-74.0016,40.767],[-73.998,40.766],[-73.9976,40.7669],[-74.0006,40.7682],[-73.9971,40.7673],[-73.9966,40.7682],[-73.9997,40.7695],[-73.9968,40.7691],[-73.999,40.7705],[-73.9988,40.7708],[-73.9962,40.7699],[-73.9955,40.7709],[-73.996,40.7713],[-73.9951,40.7716],[-73.9971,40.7726],[-73.9964,40.7728],[-73.9967,40.7735],[-73.9941,40.7726],[-73.9962,40.774],[-73.994,40.7732],[-73.9923,40.7751],[-73.9891,40.7795],[-73.9915,40.7796],[-73.989,40.7799],[-73.9855,40.7854],[-73.9862,40.786],[-73.9871,40.7852],[-73.9858,40.7866],[-73.9846,40.7867],[-73.9641,40.8158],[-73.9594,40.8209],[-73.9588,40.8219],[-73.9599,40.8226],[-73.9596,40.823],[-73.9586,40.822],[-73.9582,40.8223],[-73.9583,40.8231],[-73.9596,40.8237],[-73.9573,40.8271],[-73.9563,40.8279],[-73.9551,40.8275],[-73.9545,40.828],[-73.9513,40.8324],[-73.9484,40.8399],[-73.9461,40.8439],[-73.947,40.8505],[-73.9435,40.8523],[-73.9419,40.8539],[-73.9324,40.8675],[-73.9319,40.8711],[-73.9292,40.8756],[-73.9265,40.8776],[-73.926,40.8771],[-73.9233,40.8773],[-73.9224,40.8767],[-73.9225,40.8743],[-73.9212,40.8731],[-73.92,40.8734],[-73.9208,40.8742],[-73.9209,40.8755],[-73.9189,40.8746],[-73.9189,40.8733],[-73.9176,40.8745],[-73.9157,40.8745],[-73.9114,40.8732],[-73.9104,40.8714],[-73.9125,40.8665],[-73.9144,40.8642],[-73.9154,40.8644],[-73.9154,40.8631],[-73.9173,40.8617],[-73.9195,40.8588],[-73.9216,40.86],[-73.9217,40.8592],[-73.9204,40.8582],[-73.9215,40.8573],[-73.9215,40.8566],[-73.9297,40.8452],[-73.9349,40.8352],[-73.9352,40.8327],[-73.9338,40.8197],[-73.9343,40.8096],[-73.929,40.8011],[-73.9293,40.7959],[-73.9302,40.7946],[-73.9358,40.7911],[-73.937,40.7895],[-73.9361,40.7889],[-73.9372,40.7891],[-73.9398,40.7853],[-73.9432,40.7833],[-73.9439,40.7813],[-73.9434,40.7796],[-73.9425,40.7791],[-73.9429,40.7786],[-73.942,40.7762],[-73.9429,40.7747],[-73.9623,40.7544],[-73.9718,40.7429],[-73.9727,40.7392],[-73.9725,40.7358],[-73.9729,40.7351],[-73.9744,40.735],[-73.9734,40.7313],[-73.9715,40.7293],[-73.9715,40.7273],[-73.9735,40.7189],[-73.9764,40.7119],[-73.9779,40.7106],[-73.9812,40.7098],[-73.9884,40.7091],[-73.9888,40.71],[-73.9981,40.7085],[-74.0011,40.7069],[-74.0013,40.7061],[-74.0006,40.7054],[-74.0014,40.7049],[-74.0021,40.7054],[-74.0022,40.7046],[-74.0042,40.7052],[-74.0045,40.7047],[-74.0035,40.7038],[-74.0047,40.7045],[-74.005,40.7041],[-74.0043,40.703],[-74.0056,40.7041],[-74.0062,40.7039],[-74.0053,40.7026],[-74.0068,40.7035],[-74.0075,40.7031],[-74.0092,40.7019],[-74.0087,40.7012],[-74.0076,40.7013],[-74.0083,40.7007],[-74.0097,40.7018],[-74.0111,40.7014],[-74.0108,40.7002],[-74.0112,40.7006],[-74.013,40.6998],[-74.0137,40.701],[-74.0142,40.7001],[-74.0151,40.7003],[-74.015,40.7008],[-74.0189,40.7048],[-74.0193,40.7061]],[[-73.9223,40.8566],[-73.922,40.8561],[-73.9219,40.8567],[-73.9223,40.8566]],[[-73.973,40.7358],[-73.9741,40.7356],[-73.9729,40.7354],[-73.973,40.7358]],[[-73.9856,40.7862],[-73.9849,40.7865],[-73.9856,40.7865],[-73.9856,40.7862]],[[-73.9852,40.7859],[-73.9859,40.7859],[-73.9854,40.7855],[-73.9852,40.7859]],[[-73.9947,40.7725],[-73.9956,40.7723],[-73.9946,40.7722],[-73.9947,40.7725]]],[[[-73.9361,40.7842],[-73.9357,40.7857],[-73.9324,40.7897],[-73.9308,40.791],[-73.9297,40.7914],[-73.9281,40.7908],[-73.9274,40.7917],[-73.9283,40.7931],[-73.9269,40.7955],[-73.9271,40.7972],[-73.9277,40.7973],[-73.9268,40.8],[-73.9272,40.8004],[-73.9255,40.802],[-73.9219,40.8015],[-73.9203,40.7994],[-73.9155,40.7971],[-73.9138,40.7945],[-73.9151,40.792],[-73.9169,40.7904],[-73.9185,40.7897],[-73.9222,40.7855],[-73.9229,40.7836],[-73.9245,40.7823],[-73.9281,40.7809],[-73.931,40.7824],[-73.935,40.783],[-73.9361,40.7842]],[[-73.9262,40.7907],[-73.9264,40.7911],[-73.9265,40.7908],[-73.9262,40.7907]]],[[[-73.9236,40.8788],[-73.9236,40.879],[-73.9236,40.879],[-73.9236,40.8788]]],[[[-73.9396,40.7796],[-73.9387,40.781],[-73.9376,40.781],[-73.9376,40.7805],[-73.9396,40.7796]]],[[[-73.9616,40.7496],[-73.959,40.7536],[-73.9447,40.7698],[-73.9421,40.772],[-73.9401,40.7729],[-73.9403,40.7707],[-73.9411,40.7694],[-73.9429,40.7683],[-73.9532,40.7564],[-73.9616,40.7496]]],[[[-73.9644,40.7464],[-73.9642,40.7468],[-73.9641,40.7468],[-73.9644,40.7464]]],[[[-74.0232,40.683],[-74.0227,40.6842],[-74.0257,40.6842],[-74.0266,40.6859],[-74.0197,40.6931],[-74.0154,40.6933],[-74.0134,40.6921],[-74.0118,40.6925],[-74.0131,40.692],[-74.0118,40.6911],[-74.0132,40.6882],[-74.0169,40.6868],[-74.0151,40.6864],[-74.0166,40.6863],[-74.0175,40.6854],[-74.0168,40.6864],[-74.0173,40.6868],[-74.0204,40.6852],[-74.0194,40.6851],[-74.0224,40.6845],[-74.0221,40.6838],[-74.0232,40.683]]],[[[-74.0437,40.698],[-74.0405,40.7008],[-74.0377,40.6993],[-74.0382,40.6984],[-74.0393,40.6981],[-74.0414,40.6994],[-74.0416,40.699],[-74.0399,40.6977],[-74.0417,40.6965],[-74.0437,40.698]]],[[[-74.0477,40.6899],[-74.047,40.69],[-74.0472,40.691],[-74.0461,40.6911],[-74.0435,40.6897],[-74.0427,40.6902],[-74.0426,40.69],[-74.0444,40.6885],[-74.0477,40.6899]]]]}},{"type":"Feature","properties":{"borough":"Staten Island"},"geometry":{"type":"MultiPolygon","coordinates":[[[[-74.2556,40.5077],[-74.255,40.5088],[-74.2541,40.509],[-74.2545,40.51],[-74.2533,40.5099],[-74.2535,40.5117],[-74.252,40.513],[-74.2521,40.5137],[-74.2501,40.5151],[-74.2506,40.5161],[-74.2489,40.516],[-74.2484,40.5166],[-74.2494,40.517],[-74.2485,40.5175],[-74.2488,40.5171],[-74.2474,40.5158],[-74.2466,40.5162],[-74.247,40.5172],[-74.2463,40.5168],[-74.2454,40.5172],[-74.2456,40.5181],[-74.2423,40.5183],[-74.2399,40.5201],[-74.2411,40.521],[-74.2429,40.5212],[-74.2428,40.524],[-74.244,40.5249],[-74.2415,40.5313],[-74.2422,40.5346],[-74.2441,40.5362],[-74.2442,40.5369],[-74.2453,40.5369],[-74.2444,40.5381],[-74.2456,40.5409],[-74.248,40.5431],[-74.2462,40.5456],[-74.2434,40.5479],[-74.2422,40.5469],[-74.2404,40.5477],[-74.2364,40.5505],[-74.2364,40.5523],[-74.2349,40.553],[-74.2333,40.5525],[-74.2307,40.5556],[-74.2295,40.5555],[-74.2283,40.5564],[-74.2234,40.556],[-74.2226,40.5554],[-74.2209,40.5559],[-74.2197,40.5546],[-74.2187,40.556],[-74.2177,40.555],[-74.2149,40.5562],[-74.215,40.5568],[-74.2133,40.5566],[-74.212,40.5584],[-74.2112,40.5605],[-74.2114,40.5635],[-74.2081,40.5705],[-74.2071,40.5763],[-74.2059,40.5786],[-74.206,40.5804],[-74.2044,40.5837],[-74.2046,40.5893],[-74.1997,40.5936],[-74.1975,40.5969],[-74.1973,40.5981],[-74.1988,40.6017],[-74.2022,40.606],[-74.2028,40.6083],[-74.2024,40.6133],[-74.2004,40.6164],[-74.2016,40.6231],[-74.2011,40.6241],[-74.2014,40.6261],[-74.201,40.6293],[-74.2004,40.6298],[-74.2008,40.6303],[-74.2004,40.6314],[-74.1953,40.6352],[-74.1944,40.6366],[-74.1946,40.6374],[-74.1938,40.6374],[-74.1865,40.6434],[-74.1848,40.6441],[-74.1836,40.6432],[-74.1837,40.6446],[-74.1809,40.6449],[-74.1802,40.6443],[-74.18,40.6453],[-74.1796,40.6444],[-74.1792,40.645],[-74.1788,40.6426],[-74.1756,40.6434],[-74.1757,40.6447],[-74.1744,40.6451],[-74.173,40.6442],[-74.1724,40.6429],[-74.1714,40.6431],[-74.1718,40.6424],[-74.171,40.6426],[-74.1711,40.6418],[-74.1691,40.6421],[-74.1666,40.6415],[-74.1662,40.6424],[-74.1658,40.6412],[-74.1654,40.6423],[-74.1649,40.6422],[-74.1652,40.6407],[-74.1644,40.6414],[-74.1646,40.6403],[-74.1639,40.6411],[-74.1639,40.6399],[-74.1632,40.6409],[-74.1617,40.6406],[-74.1621,40.6387],[-74.1614,40.6394],[-74.1612,40.6386],[-74.1609,40.6394],[-74.1604,40.6385],[-74.1599,40.6399],[-74.1601,40.6389],[-74.1594,40.6379],[-74.159,40.6388],[-74.1581,40.6381],[-74.1577,40.6389],[-74.1573,40.638],[-74.157,40.6393],[-74.157,40.638],[-74.1559,40.6375],[-74.1556,40.6385],[-74.1555,40.6378],[-74.1549,40.6378],[-74.1547,40.6392],[-74.1546,40.6373],[-74.1529,40.6372],[-74.1523,40.6383],[-74.1512,40.6378],[-74.1514,40.6394],[-74.1511,40.6386],[-74.1496,40.6378],[-74.1488,40.6389],[-74.1452,40.6394],[-74.144,40.639],[-74.1434,40.6397],[-74.1425,40.6396],[-74.1423,40.6403],[-74.1344,40.6419],[-74.1313,40.6416],[-74.1303,40.6408],[-74.1295,40.6414],[-74.1298,40.6406],[-74.129,40.6405],[-74.1289,40.6412],[-74.1288,40.6403],[-74.1273,40.64],[-74.1262,40.6404],[-74.1264,40.6413],[-74.1256,40.6414],[-74.126,40.6402],[-74.1242,40.6401],[-74.1228,40.6414],[-74.1201,40.6412],[-74.1194,40.6424],[-74.1188,40.6415],[-74.1188,40.6425],[-74.1184,40.6417],[-74.118,40.6422],[-74.1174,40.6417],[-74.1175,40.6424],[-74.1168,40.6421],[-74.1172,40.643],[-74.1166,40.6424],[-74.1167,40.6432],[-74.116,40.6423],[-74.1161,40.6433],[-74.1154,40.6425],[-74.1139,40.6435],[-74.114,40.6441],[-74.1129,40.6445],[-74.1135,40.6441],[-74.1132,40.6438],[-74.1097,40.6455],[-74.1041,40.6457],[-74.0989,40.645],[-74.0947,40.6456],[-74.0857,40.6489],[-74.0798,40.6484],[-74.0765,40.647],[-74.0744,40.6451],[-74.0733,40.6458],[-74.0735,40.6452],[-74.0725,40.6446],[-74.0717,40.645],[-74.0721,40.6445],[-74.0709,40.6433],[-74.0715,40.6427],[-74.0704,40.6427],[-74.0702,40.642],[-74.0729,40.6417],[-74.0729,40.6411],[-74.07,40.6411],[-74.0731,40.6404],[-74.0731,40.6387],[-74.0724,40.6382],[-74.0735,40.6373],[-74.0705,40.6372],[-74.0733,40.6364],[-74.073,40.6304],[-74.068,40.6288],[-74.0728,40.6299],[-74.0723,40.6246],[-74.0697,40.6212],[-74.0666,40.619],[-74.0654,40.6192],[-74.0661,40.6182],[-74.0643,40.6182],[-74.0649,40.6174],[-74.0639,40.6173],[-74.0613,40.6142],[-74.0604,40.612],[-74.06,40.6128],[-74.0565,40.6073],[-74.0538,40.6059],[-74.053,40.6015],[-74.0534,40.6006],[-74.0522,40.5998],[-74.0545,40.5987],[-74.0622,40.592],[-74.065,40.5891],[-74.0644,40.5883],[-74.0672,40.5867],[-74.071,40.5832],[-74.0715,40.5822],[-74.0707,40.5816],[-74.0718,40.5819],[-74.0748,40.5794],[-74.0734,40.5783],[-74.0751,40.5791],[-74.0757,40.5784],[-74.0753,40.5779],[-74.0762,40.5781],[-74.0791,40.5758],[-74.0787,40.5751],[-74.0794,40.5756],[-74.0802,40.5752],[-74.085,40.5713],[-74.0868,40.5691],[-74.0862,40.5685],[-74.0873,40.569],[-74.0892,40.567],[-74.09,40.5674],[-74.091,40.5667],[-74.0941,40.5627],[-74.0954,40.5631],[-74.0966,40.5621],[-74.0982,40.5598],[-74.0978,40.5591],[-74.0988,40.5594],[-74.1008,40.5583],[-74.1018,40.5562],[-74.1014,40.5555],[-74.1031,40.5559],[-74.1047,40.5541],[-74.1048,40.553],[-74.1066,40.5542],[-74.1077,40.554],[-74.1129,40.5478],[-74.1165,40.5479],[-74.1181,40.5473],[-74.1198,40.5455],[-74.1225,40.5448],[-74.1336,40.5315],[-74.1369,40.5293],[-74.1386,40.5298],[-74.1406,40.5344],[-74.1401,40.5355],[-74.1339,40.5356],[-74.133,40.5366],[-74.1339,40.5366],[-74.13,40.54],[-74.1295,40.5394],[-74.1278,40.541],[-74.1275,40.5429],[-74.129,40.5451],[-74.1306,40.5462],[-74.1335,40.5469],[-74.1369,40.5459],[-74.1361,40.545],[-74.1369,40.5447],[-74.1381,40.5459],[-74.1388,40.5452],[-74.1376,40.5443],[-74.1383,40.5436],[-74.1403,40.5419],[-74.1414,40.5423],[-74.1407,40.5417],[-74.141,40.5414],[-74.1421,40.5421],[-74.1421,40.5381],[-74.1413,40.5371],[-74.1437,40.5372],[-74.1447,40.5358],[-74.1492,40.5342],[-74.1507,40.5325],[-74.1525,40.5321],[-74.156,40.5294],[-74.1562,40.5286],[-74.157,40.529],[-74.1597,40.5273],[-74.1623,40.5272],[-74.17,40.523],[-74.1721,40.5233],[-74.176,40.5209],[-74.1776,40.5192],[-74.181,40.5207],[-74.1848,40.5193],[-74.1885,40.5163],[-74.1892,40.5155],[-74.1888,40.5151],[-74.1897,40.5153],[-74.1952,40.51],[-74.1965,40.5099],[-74.1997,40.5114],[-74.2004,40.513],[-74.2076,40.5118],[-74.2095,40.5109],[-74.2093,40.5104],[-74.2099,40.5106],[-74.2135,40.5064],[-74.2151,40.5061],[-74.2176,40.5033],[-74.225,40.5018],[-74.2273,40.5023],[-74.2311,40.5019],[-74.2368,40.5],[-74.2399,40.4976],[-74.2443,40.4975],[-74.2469,40.4961],[-74.2492,40.4966],[-74.2512,40.499],[-74.2532,40.5002],[-74.2553,40.5041],[-74.2556,40.5077]],[[-74.1365,40.545],[-74.1369,40.5452],[-74.1368,40.5449],[-74.1365,40.545]],[[-74.1382,40.5443],[-74.1378,40.5442],[-74.138,40.5445],[-74.1382,40.5443]],[[-74.1397,40.5438],[-74.1393,40.5431],[-74.1391,40.5434],[-74.1397,40.5438]],[[-74.219,40.5553],[-74.2186,40.5548],[-74.2188,40.5555],[-74.219,40.5553]]],[[[-74.1615,40.6443],[-74.158,40.6439],[-74.1574,40.6433],[-74.1588,40.6418],[-74.16,40.6414],[-74.1611,40.6418],[-74.1615,40.6443]]]]}},{"type":"Feature","properties":{"borough":"Brooklyn"},"geometry":{"type":"MultiPolygon","coordinates":[[[[-74.0417,40.6225],[-74.0411,40.6302],[-74.0369,40.6388],[-74.0388,40.6396],[-74.0367,40.6392],[-74.0358,40.6406],[-74.0368,40.6416],[-74.0345,40.6439],[-74.0341,40.6443],[-74.0329,40.6436],[-74.0319,40.6439],[-74.0305,40.6453],[-74.0279,40.6444],[-74.0262,40.6463],[-74.0297,40.6485],[-74.0294,40.6488],[-74.0255,40.6468],[-74.0251,40.6474],[-74.0263,40.6482],[-74.0249,40.6475],[-74.0245,40.6478],[-74.0255,40.6498],[-74.025,40.6506],[-74.0261,40.651],[-74.0254,40.6519],[-74.0242,40.6512],[-74.0237,40.6516],[-74.0254,40.6527],[-74.0215,40.6508],[-74.0214,40.6513],[-74.0238,40.653],[-74.0219,40.6522],[-74.0213,40.6529],[-74.0232,40.6541],[-74.0216,40.6536],[-74.0212,40.6542],[-74.0216,40.6549],[-74.0183,40.6537],[-74.0201,40.6553],[-74.0178,40.6542],[-74.0173,40.6548],[-74.0198,40.6565],[-74.0174,40.6552],[-74.0167,40.6555],[-74.0191,40.6574],[-74.0186,40.6578],[-74.0157,40.6563],[-74.0177,40.6585],[-74.0149,40.6571],[-74.0146,40.6577],[-74.0175,40.6595],[-74.0155,40.6608],[-74.0118,40.659],[-74.0113,40.6598],[-74.014,40.6615],[-74.0127,40.662],[-74.0086,40.6596],[-74.0076,40.6606],[-74.0105,40.6626],[-74.0087,40.6634],[-74.0063,40.6619],[-74.0057,40.6623],[-74.0062,40.6628],[-74.0059,40.6636],[-74.0077,40.6648],[-74.0056,40.6645],[-74.0046,40.6633],[-74.0044,40.6641],[-74.0053,40.6647],[-74.0049,40.6651],[-74.0012,40.6629],[-73.9997,40.6643],[-74.0029,40.6665],[-73.9993,40.6682],[-73.9988,40.6715],[-74.0003,40.6687],[-74.0022,40.6685],[-74.0032,40.6673],[-74.0059,40.668],[-74.0069,40.666],[-74.005,40.6708],[-74.0055,40.6708],[-74.0075,40.6671],[-74.0073,40.6686],[-74.0099,40.6685],[-74.0115,40.6651],[-74.0157,40.6646],[-74.0174,40.6653],[-74.0193,40.6716],[-74.0175,40.671],[-74.0164,40.6649],[-74.0159,40.6655],[-74.0123,40.6658],[-74.0103,40.669],[-74.0117,40.6705],[-74.0142,40.6697],[-74.0119,40.6707],[-74.0143,40.6713],[-74.0152,40.6708],[-74.0141,40.6721],[-74.0157,40.671],[-74.0131,40.6733],[-74.0151,40.6722],[-74.0163,40.6729],[-74.0149,40.6746],[-74.0182,40.6719],[-74.0188,40.6723],[-74.0174,40.6736],[-74.018,40.6739],[-74.0181,40.6751],[-74.0189,40.6751],[-74.0179,40.6765],[-74.0198,40.6766],[-74.02,40.6771],[-74.0184,40.6781],[-74.0197,40.6784],[-74.0184,40.6786],[-74.0195,40.679],[-74.0193,40.6796],[-74.0128,40.6836],[-74.0121,40.6829],[-74.014,40.6817],[-74.0129,40.6805],[-74.0098,40.6832],[-74.0107,40.6843],[-74.0122,40.6841],[-74.0084,40.6864],[-74.0059,40.6863],[-74.0058,40.6868],[-74.0078,40.6874],[-74.0074,40.6882],[-74.0047,40.688],[-74.0068,40.6888],[-74.0064,40.6897],[-74.0037,40.6891],[-74.0036,40.6897],[-74.0058,40.6902],[-74.0053,40.6911],[-74.0009,40.6902],[-74.0009,40.6907],[-74.0048,40.6918],[-74.0044,40.6925],[-74.0019,40.692],[-74.0019,40.6925],[-74.004,40.6932],[-74.0035,40.6941],[-74.0012,40.6934],[-74.0011,40.6941],[-74.003,40.6948],[-74.0024,40.6957],[-74.0002,40.6951],[-73.9994,40.6964],[-74.0004,40.6971],[-73.9991,40.6971],[-74.001,40.6979],[-74.0005,40.6988],[-73.9983,40.6982],[-73.9982,40.6988],[-74.0,40.6995],[-73.9995,40.7003],[-73.9972,40.6997],[-73.9968,40.7009],[-73.9981,40.7015],[-73.9946,40.7044],[-73.9921,40.7047],[-73.991,40.704],[-73.9902,40.7049],[-73.9885,40.7046],[-73.988,40.7051],[-73.9783,40.706],[-73.9786,40.705],[-73.9772,40.7042],[-73.9774,40.7033],[-73.976,40.7047],[-73.9769,40.7028],[-73.9762,40.7022],[-73.9753,40.703],[-73.9759,40.702],[-73.9746,40.7016],[-73.9757,40.6996],[-73.9743,40.7012],[-73.9726,40.7015],[-73.9733,40.7024],[-73.9728,40.7027],[-73.9697,40.7004],[-73.9728,40.7033],[-73.9693,40.7014],[-73.969,40.7018],[-73.9723,40.7038],[-73.9711,40.7038],[-73.9747,40.7061],[-73.9734,40.7057],[-73.9727,40.7062],[-73.9746,40.7077],[-73.9742,40.708],[-73.9712,40.7059],[-73.9711,40.7069],[-73.9728,40.7088],[-73.9723,40.7091],[-73.9703,40.7069],[-73.9701,40.7049],[-73.9675,40.7035],[-73.9693,40.7051],[-73.97,40.7105],[-73.9667,40.7178],[-73.9673,40.7183],[-73.9662,40.7184],[-73.9665,40.7192],[-73.9653,40.7191],[-73.9654,40.7201],[-73.9642,40.7207],[-73.965,40.7214],[-73.964,40.721],[-73.963,40.722],[-73.9619,40.7253],[-73.9579,40.7247],[-73.9585,40.7254],[-73.9601,40.7252],[-73.9603,40.7259],[-73.9616,40.7259],[-73.961,40.7286],[-73.9614,40.731],[-73.9623,40.7329],[-73.9641,40.7329],[-73.9624,40.7331],[-73.9621,40.7345],[-73.9605,40.7364],[-73.9569,40.7389],[-73.952,40.7388],[-73.9465,40.7369],[-73.9467,40.7359],[-73.9456,40.7366],[-73.945,40.7359],[-73.9432,40.7358],[-73.9415,40.7347],[-73.9398,40.7312],[-73.9381,40.7298],[-73.9292,40.7274],[-73.9279,40.7259],[-73.9257,40.7202],[-73.9248,40.7203],[-73.9245,40.7193],[-73.9249,40.7184],[-73.9289,40.7177],[-73.9297,40.7171],[-73.9295,40.7157],[-73.9321,40.715],[-73.9312,40.7137],[-73.9326,40.7129],[-73.9309,40.7092],[-73.9303,40.7089],[-73.9318,40.7126],[-73.9305,40.7132],[-73.9309,40.7149],[-73.9286,40.7155],[-73.9289,40.7166],[-73.9282,40.7171],[-73.9246,40.718],[-73.9236,40.7173],[-73.9231,40.7163],[-73.9248,40.7152],[-73.9222,40.7129],[-73.9207,40.7105],[-73.9217,40.7093],[-73.9118,40.7034],[-73.9128,40.7024],[-73.9107,40.701],[-73.9116,40.6998],[-73.9043,40.6957],[-73.9056,40.6941],[-73.9012,40.6914],[-73.9018,40.6907],[-73.9004,40.6882],[-73.901,40.6877],[-73.8966,40.6825],[-73.8942,40.6853],[-73.8925,40.6835],[-73.8902,40.685],[-73.8895,40.6843],[-73.8846,40.6867],[-73.8795,40.6911],[-73.874,40.6942],[-73.8689,40.6952],[-73.8661,40.6821],[-73.8641,40.6824],[-73.8633,40.6792],[-73.8623,40.6792],[-73.8604,40.6714],[-73.8576,40.6717],[-73.8557,40.6639],[-73.8584,40.6634],[-73.8576,40.6601],[-73.8604,40.6596],[-73.863,40.6584],[-73.8632,40.657],[-73.8628,40.6558],[-73.861,40.6552],[-73.857,40.6506],[-73.8584,40.647],[-73.8572,40.6437],[-73.8629,40.6425],[-73.8665,40.6401],[-73.8654,40.6388],[-73.8687,40.6409],[-73.8706,40.6448],[-73.8726,40.6456],[-73.8793,40.6546],[-73.8796,40.6543],[-73.8732,40.6454],[-73.8733,40.644],[-73.8699,40.639],[-73.868,40.6381],[-73.8696,40.6371],[-73.8696,40.6379],[-73.8739,40.6364],[-73.8784,40.6389],[-73.8805,40.641],[-73.8807,40.6416],[-73.8801,40.642],[-73.8815,40.6425],[-73.8823,40.6438],[-73.8834,40.6445],[-73.8856,40.644],[-73.8872,40.6453],[-73.8796,40.6382],[-73.8786,40.6383],[-73.8771,40.636],[-73.8782,40.6346],[-73.8836,40.631],[-73.8839,40.6295],[-73.8826,40.6283],[-73.8837,40.6276],[-73.8851,40.6288],[-73.8875,40.6283],[-73.8905,40.6262],[-73.8924,40.6237],[-73.8958,40.6225],[-73.8983,40.623],[-73.9012,40.6257],[-73.9041,40.6263],[-73.9163,40.632],[-73.9175,40.6314],[-73.9153,40.63],[-73.9023,40.6244],[-73.9029,40.6235],[-73.9009,40.6225],[-73.9006,40.6217],[-73.8965,40.6214],[-73.8956,40.6198],[-73.8966,40.6173],[-73.8958,40.6145],[-73.8919,40.6136],[-73.8897,40.6115],[-73.8902,40.6104],[-73.8922,40.609],[-73.8933,40.6067],[-73.8983,40.6053],[-73.8998,40.6055],[-73.9009,40.6069],[-73.9005,40.6104],[-73.9013,40.6105],[-73.9084,40.6173],[-73.9084,40.6165],[-73.9091,40.6166],[-73.908,40.6157],[-73.9081,40.6153],[-73.9023,40.6104],[-73.9016,40.6058],[-73.9052,40.6049],[-73.906,40.6064],[-73.9086,40.6064],[-73.908,40.6054],[-73.9084,40.6052],[-73.9092,40.6065],[-73.9098,40.6059],[-73.9083,40.6041],[-73.9109,40.6035],[-73.9137,40.604],[-73.9167,40.6068],[-73.9164,40.6085],[-73.9171,40.6088],[-73.9162,40.6105],[-73.9145,40.6116],[-73.9149,40.614],[-73.9141,40.6145],[-73.9144,40.6149],[-73.9159,40.6139],[-73.9157,40.6118],[-73.918,40.6103],[-73.9177,40.6097],[-73.9184,40.6085],[-73.918,40.6081],[-73.9188,40.6082],[-73.9181,40.6076],[-73.9186,40.6068],[-73.9144,40.6029],[-73.909,40.6027],[-73.9095,40.6021],[-73.909,40.6016],[-73.8988,40.6037],[-73.8922,40.6034],[-73.8876,40.6053],[-73.884,40.6056],[-73.8827,40.6042],[-73.8833,40.6029],[-73.8816,40.5994],[-73.88,40.5922],[-73.8794,40.5921],[-73.8797,40.5914],[-73.879,40.5909],[-73.8788,40.588],[-73.8767,40.5849],[-73.8797,40.5801],[-73.8821,40.5791],[-73.8955,40.5768],[-73.8971,40.5799],[-73.8966,40.583],[-73.8981,40.5852],[-73.8979,40.5859],[-73.8988,40.5875],[-73.8997,40.5871],[-73.8992,40.5876],[-73.8997,40.588],[-73.9012,40.5874],[-73.9009,40.5881],[-73.9043,40.5869],[-73.9065,40.588],[-73.9071,40.5876],[-73.9064,40.587],[-73.9115,40.5861],[-73.912,40.5867],[-73.9115,40.5911],[-73.912,40.5945],[-73.9152,40.5988],[-73.9216,40.6018],[-73.9229,40.6014],[-73.9246,40.5997],[-73.9295,40.6027],[-73.9293,40.604],[-73.931,40.6039],[-73.9321,40.6028],[-73.9311,40.6017],[-73.9272,40.5999],[-73.9219,40.5952],[-73.9182,40.5931],[-73.9142,40.5892],[-73.9192,40.586],[-73.9248,40.5856],[-73.9281,40.5877],[-73.9278,40.5889],[-73.9286,40.5886],[-73.9306,40.5899],[-73.93,40.5935],[-73.9323,40.5949],[-73.9327,40.5943],[-73.931,40.5919],[-73.9311,40.5894],[-73.9297,40.5886],[-73.9303,40.5883],[-73.9297,40.5876],[-73.9313,40.587],[-73.9286,40.5871],[-73.9279,40.5861],[-73.9275,40.5864],[-73.9246,40.5846],[-73.92,40.5847],[-73.9157,40.5862],[-73.9132,40.5861],[-73.9126,40.5856],[-73.9125,40.5832],[-73.9115,40.5827],[-73.9115,40.5818],[-73.9151,40.5815],[-73.9244,40.5836],[-73.9296,40.5834],[-73.9309,40.5827],[-73.941,40.5831],[-73.9417,40.5836],[-73.942,40.5831],[-73.9475,40.5835],[-73.9533,40.583],[-73.9532,40.582],[-73.9497,40.5823],[-73.9427,40.581],[-73.9326,40.5813],[-73.9311,40.5762],[-73.9349,40.5753],[-73.9362,40.5759],[-73.9425,40.5754],[-73.9444,40.5758],[-73.9446,40.5752],[-73.9457,40.5756],[-73.9525,40.5742],[-73.9584,40.5741],[-73.959,40.5734],[-73.9598,40.5739],[-73.9672,40.5733],[-73.9693,40.5729],[-73.9692,40.5723],[-73.9697,40.5728],[-73.9712,40.5727],[-73.9712,40.5719],[-73.9716,40.5726],[-73.9729,40.5725],[-73.9732,40.5716],[-73.9736,40.5723],[-73.9753,40.572],[-73.9754,40.5714],[-73.9759,40.572],[-73.9773,40.5719],[-73.9777,40.5712],[-73.9784,40.5719],[-73.9796,40.5717],[-73.9794,40.5712],[-73.9802,40.5717],[-73.9828,40.5715],[-73.9836,40.5713],[-73.983,40.5701],[-73.9834,40.5695],[-73.9839,40.5714],[-73.9908,40.5702],[-74.0011,40.5704],[-74.002,40.5702],[-74.0021,40.5696],[-74.003,40.5722],[-74.0101,40.5738],[-74.012,40.5749],[-74.013,40.5779],[-74.0119,40.5797],[-74.0081,40.5816],[-74.006,40.582],[-73.9982,40.5815],[-73.9978,40.5806],[-73.9884,40.5788],[-73.9868,40.5797],[-73.986,40.5815],[-73.988,40.5797],[-73.9916,40.5811],[-73.9905,40.5845],[-73.9955,40.5822],[-74.0002,40.5831],[-74.0004,40.5842],[-73.9987,40.5853],[-73.9997,40.5857],[-73.9996,40.5862],[-73.9957,40.5877],[-73.9959,40.5882],[-73.998,40.5873],[-73.995,40.5889],[-73.9955,40.5893],[-74.0004,40.5865],[-74.0004,40.5871],[-73.9981,40.5883],[-73.9995,40.5892],[-73.9978,40.5912],[-73.9983,40.5916],[-74.0001,40.5912],[-73.9992,40.5923],[-73.9995,40.593],[-74.0011,40.5925],[-74.0036,40.5961],[-74.0102,40.6004],[-74.0209,40.6035],[-74.03,40.6048],[-74.0321,40.6059],[-74.036,40.6093],[-74.0369,40.6112],[-74.0402,40.615],[-74.0417,40.6225]],[[-73.8908,40.6493],[-73.8909,40.6486],[-73.8893,40.6471],[-73.8884,40.6474],[-73.8875,40.6458],[-73.8877,40.6478],[-73.8908,40.6493]],[[-73.8936,40.6112],[-73.8919,40.6116],[-73.8917,40.6119],[-73.8932,40.6117],[-73.8936,40.6112]],[[-73.9013,40.6117],[-73.9021,40.6114],[-73.9015,40.6111],[-73.9013,40.6117]],[[-73.9093,40.6167],[-73.9086,40.6155],[-73.9082,40.6155],[-73.9093,40.6167]],[[-73.916,40.5826],[-73.9152,40.5824],[-73.9148,40.5827],[-73.9151,40.5831],[-73.916,40.5826]],[[-73.9167,40.5831],[-73.9165,40.5828],[-73.9164,40.583],[-73.9167,40.5831]],[[-73.9244,40.5912],[-73.9246,40.5909],[-73.9243,40.5909],[-73.9244,40.5912]],[[-73.9468,40.7352],[-73.9471,40.7345],[-73.9467,40.7345],[-73.9468,40.7352]],[[-74.0037,40.6623],[-74.0046,40.6624],[-74.0037,40.6621],[-74.0037,40.6623]],[[-74.0247,40.6514],[-74.0247,40.6508],[-74.0244,40.6511],[-74.0247,40.6514]]],[[[-73.9223,40.5984],[-73.9208,40.5995],[-73.9192,40.5996],[-73.9164,40.5982],[-73.9134,40.5947],[-73.9129,40.5921],[-73.9152,40.5916],[-73.9179,40.5947],[-73.9208,40.5963],[-73.9223,40.5984]]]]}}]}